NORAD_CAT_ID,OBJECT_NAME,OBJECT_TYPE,EPOCH,MEAN_MOTION,ECCENTRICITY,INCLINATION,RA_OF_ASC_NODE,ARG_OF_PERICENTER,MEAN_ANOMALY,BSTAR,MEAN_MOTION_DOT,MEAN_MOTION_DDOT,TLE_LINE0,TLE_LINE1,TLE_LINE2,SEMIMAJOR_AXIS,PERIOD,APOGEE,PERIGEE,DECAYED
50188.0,STARLINK-3275,PAYLOAD,2023-09-20 04:17:08,15.1461938,0.0001184,53.2224,311.469,58.4634,301.6476,-0.00033687,-6.595e-05,0.0,0 STARLINK-3275,1 50188U 21125AJ  23263.17856566 -.00006595  00000-0 -33687-3 0  9990,2 50188  53.2224 311.4690 0001184  58.4634 301.6476 15.14619380 97753,6900.271,95.073,522.953,521.319,0.0
50188.0,STARLINK-3275,PAYLOAD,2023-09-20 10:37:14,15.14598649,0.0001376,53.2221,310.2745,67.8929,292.2212,-0.00047227,-9.115e-05,0.0,0 STARLINK-3275,1 50188U 21125AJ  23263.44253308 -.00009115  00000-0 -47227-3 0  9991,2 50188  53.2221 310.2745 0001376  67.8929 292.2212 15.14598649 97793,6900.334,95.075,523.149,521.25,0.0
50188.0,STARLINK-3275,PAYLOAD,2023-09-21 02:27:31,15.14560197,0.0001253,53.2218,307.2855,70.2548,289.8582,-0.00044362,-8.572e-05,0.0,0 STARLINK-3275,1 50188U 21125AJ  23264.10244322 -.00008572  00000-0 -44362-3 0  9994,2 50188  53.2218 307.2855 0001253  70.2548 289.8582 15.14560197 97896,6900.451,95.077,523.181,521.451,0.0
50188.0,STARLINK-3275,PAYLOAD,2023-09-21 10:22:39,15.14547283,0.0001361,53.2215,305.7912,61.2047,298.9085,-0.00046489,-8.965e-05,0.0,0 STARLINK-3275,1 50188U 21125AJ  23264.43240196 -.00008965  00000-0 -46489-3 0  9993,2 50188  53.2215 305.7912 0001361  61.2047 298.9085 15.14547283 97940,6900.49,95.078,523.294,521.416,0.0
50188.0,STARLINK-3275,PAYLOAD,2023-09-22 03:48:00,15.1449402,0.0001556,53.2224,302.5069,66.0198,294.096,-0.0003188,-6.237e-05,0.0,0 STARLINK-3275,1 50188U 21125AJ  23265.15833348 -.00006237  00000-0 -31880-3 0  9999,2 50188  53.2224 302.5069 0001556  66.0198 294.0960 15.14494020 98056,6900.652,95.081,523.591,521.443,0.0
50188.0,STARLINK-3275,PAYLOAD,2023-09-22 10:08:08,15.14477294,0.000149,53.2222,301.3096,66.7213,293.3939,-0.00039951,-7.733e-05,0.0,0 STARLINK-3275,1 50188U 21125AJ  23265.42231917 -.00007733  00000-0 -39951-3 0  9992,2 50188  53.2222 301.3096 0001490  66.7213 293.3939 15.14477294 98099,6900.703,95.082,523.596,521.54,0.0
50188.0,STARLINK-3275,PAYLOAD,2023-09-22 19:38:21,15.14450967,0.0001554,53.2223,299.518,57.8419,302.2726,-0.00037707,-7.311e-05,0.0,0 STARLINK-3275,1 50188U 21125AJ  23265.81829907 -.00007311  00000-0 -37707-3 0  9996,2 50188  53.2223 299.5180 0001554  57.8419 302.2726 15.14450967101291,6900.783,95.084,523.72,521.575,0.0
50188.0,STARLINK-3275,PAYLOAD,2023-09-23 01:58:28,15.14439006,0.0001418,53.2217,298.3216,67.4352,292.6793,-0.00028356,-5.573e-05,0.0,0 STARLINK-3275,1 50188U 21125AJ  23266.08227908 -.00005573  00000-0 -28356-3 0  9997,2 50188  53.2217 298.3216 0001418  67.4352 292.6793 15.14439006 98194,6900.819,95.085,523.663,521.706,0.0
50188.0,STARLINK-3275,PAYLOAD,2023-09-23 11:28:42,15.14422827,0.0001423,53.2215,296.5263,78.1924,281.923,-0.00044624,-8.588e-05,0.0,0 STARLINK-3275,1 50188U 21125AJ  23266.47827157 -.00008588  00000-0 -44624-3 0  9997,2 50188  53.2215 296.5263 0001423  78.1924 281.9230 15.14422827 98251,6900.868,95.086,523.715,521.751,0.0
50188.0,STARLINK-3275,PAYLOAD,2023-09-24 01:44:03,15.14376423,0.0001216,53.2211,293.8383,72.5437,287.569,-0.00034239,-6.654e-05,0.0,0 STARLINK-3275,1 50188U 21125AJ  23267.07226753 -.00006654  00000-0 -34239-3 0  9992,2 50188  53.2211 293.8383 0001216  72.5437 287.5690 15.14376423 98349,6901.009,95.089,523.713,522.035,0.0
50188.0,STARLINK-3275,PAYLOAD,2023-09-24 08:04:13,15.14365006,0.0001093,53.2217,292.6422,76.8359,283.2757,-0.00038541,-7.448e-05,0.0,0 STARLINK-3275,1 50188U 21125AJ  23267.33626837 -.00007448  00000-0 -38541-3 0  9990,2 50188  53.2217 292.6422 0001093  76.8359 283.2757 15.14365006 98385,6901.044,95.089,523.663,522.155,0.0
50188.0,STARLINK-3275,PAYLOAD,2023-09-24 12:49:21,15.14344546,0.0001486,53.2211,291.7503,58.1525,301.9614,-0.00046099,-8.843e-05,0.0,0 STARLINK-3275,1 50188U 21125AJ  23267.53428113 -.00008843  00000-0 -46099-3 0  9996,2 50188  53.2211 291.7503 0001486  58.1525 301.9614 15.14344546101553,6901.106,95.091,523.997,521.946,0.0
50188.0,STARLINK-3275,PAYLOAD,2023-09-25 01:29:43,15.14301591,0.00014,53.2209,289.3593,60.9708,299.1427,-0.00040215,-7.745e-05,0.0,0 STARLINK-3275,1 50188U 21125AJ  23268.06230562 -.00007745  00000-0 -40215-3 0  9998,2 50188  53.2209 289.3593 0001400  60.9708 299.1427 15.14301591 98493,6901.237,95.093,524.068,522.136,0.0
50188.0,STARLINK-3275,PAYLOAD,2023-09-25 07:49:53,15.14295876,0.00014,53.2212,288.1627,64.5818,295.5321,-0.00040519,-7.8e-05,0.0,0 STARLINK-3275,1 50188U 21125AJ  23268.32631384 -.00007800  00000-0 -40519-3 0  9993,2 50188  53.2212 288.1627 0001400  64.5818 295.5321 15.14295876101670,6901.254,95.094,524.085,522.153,0.0
50188.0,STARLINK-3275,PAYLOAD,2023-09-25 18:55:12,15.14274173,0.0001579,53.2208,286.0724,59.5725,300.5425,-0.00041227,-7.926e-05,0.0,0 STARLINK-3275,1 50188U 21125AJ  23268.78834027 -.00007926  00000-0 -41227-3 0  9998,2 50188  53.2208 286.0724 0001579  59.5725 300.5425 15.14274173 98605,6901.32,95.095,524.275,522.095,0.0
50188.0,STARLINK-3275,PAYLOAD,2023-09-26 04:25:29,15.14249264,0.0001542,53.2233,284.2744,112.1922,247.9236,-0.00038894,-7.49e-05,0.0,0 STARLINK-3275,1 50188U 21125AJ  23269.18437061 -.00007490  00000-0 -38894-3 0  9992,2 50188  53.2233 284.2744 0001542 112.1922 247.9236 15.14249264 98663,6901.396,95.097,524.325,522.196,0.0
50188.0,STARLINK-3275,PAYLOAD,2023-09-26 07:35:36,15.1423303,9.05e-05,53.2199,283.68,72.639,287.4704,-0.00049235,-9.394e-05,0.0,0 STARLINK-3275,1 50188U 21125AJ  23269.31639207 -.00009394  00000-0 -49235-3 0  9999,2 50188  53.2199 283.6800 0000905  72.6390 287.4704 15.14233030 98686,6901.445,95.098,523.935,522.685,0.0
50188.0,STARLINK-3275,PAYLOAD,2023-09-27 04:11:16,15.14172228,0.0001579,53.2217,279.7968,109.2277,250.8889,-0.00037979,-7.306e-05,0.0,0 STARLINK-3275,1 50188U 21125AJ  23270.17449741 -.00007306  00000-0 -37979-3 0  9990,2 50188  53.2217 279.7968 0001579 109.2277 250.8889 15.14172228 98811,6901.63,95.101,524.585,522.405,0.0
50188.0,STARLINK-3275,PAYLOAD,2023-09-27 10:31:29,15.14161316,0.0001497,53.2216,278.6027,82.0261,278.0903,-0.00041834,-8.013e-05,0.0,0 STARLINK-3275,1 50188U 21125AJ  23270.43853404 -.00008013  00000-0 -41834-3 0  9995,2 50188  53.2216 278.6027 0001497  82.0261 278.0903 15.14161316101993,6901.663,95.102,524.561,522.495,0.0
50188.0,STARLINK-3275,PAYLOAD,2023-09-28 03:57:06,15.14111086,0.0001216,53.2222,275.3161,96.6061,263.5072,-0.00039149,-7.508e-05,0.0,0 STARLINK-3275,1 50188U 21125AJ  23271.16465355 -.00007508  00000-0 -39149-3 0  9994,2 50188  53.2222 275.3161 0001216  96.6061 263.5072 15.14111086 98968,6901.816,95.105,524.52,522.841,0.0
50188.0,STARLINK-3275,PAYLOAD,2023-09-28 07:07:14,15.14088827,0.0001363,53.222,274.718,98.4938,261.6211,-0.00054841,-0.00010386,0.0,0 STARLINK-3275,1 50188U 21125AJ  23271.29669133 -.00010386  00000-0 -54841-3 0  9992,2 50188  53.2220 274.7180 0001363  98.4938 261.6211 15.14088827 98988,6901.883,95.107,524.689,522.807,0.0
50188.0,STARLINK-3275,PAYLOAD,2023-09-29 00:32:53,15.14037882,0.0001579,53.2221,271.434,93.8224,266.2951,-0.00034733,-6.683e-05,0.0,0 STARLINK-3275,1 50188U 21125AJ  23272.02283805 -.00006683  00000-0 -34733-3 0  9995,2 50188  53.2221 271.4340 0001579  93.8224 266.2951 15.14037882 99097,6902.038,95.11,524.993,522.813,0.0
50188.0,STARLINK-3275,PAYLOAD,2023-09-29 05:18:04,15.1402362,0.0001562,53.2221,270.5383,89.6209,270.4964,-0.00042333,-8.075e-05,0.0,0 STARLINK-3275,1 50188U 21125AJ  23272.22088727 -.00008075  00000-0 -42333-3 0  9995,2 50188  53.2221 270.5383 0001562  89.6209 270.4964 15.14023620 99122,6902.081,95.111,525.024,522.868,0.0
50188.0,STARLINK-3275,PAYLOAD,2023-09-30 03:28:57,15.13968598,0.0001687,53.2209,266.3534,92.8869,267.2319,-0.00025285,-4.94e-05,0.0,0 STARLINK-3275,1 50188U 21125AJ  23273.14510692 -.00004940  00000-0 -25285-3 0  9992,2 50188  53.2209 266.3534 0001687  92.8869 267.2319 15.13968598 99269,6902.249,95.114,525.278,522.949,0.0
50188.0,STARLINK-3275,PAYLOAD,2023-09-30 05:04:02,15.1395421,0.0001601,53.221,266.0553,86.5652,273.5526,-0.00038351,-7.33e-05,0.0,0 STARLINK-3275,1 50188U 21125AJ  23273.21113507 -.00007330  00000-0 -38351-3 0  9998,2 50188  53.2210 266.0553 0001601  86.5652 273.5526 15.13954210102413,6902.292,95.115,525.262,523.052,0.0
50188.0,STARLINK-3275,PAYLOAD,2023-09-30 06:39:05,15.13955099,0.0001616,53.2214,265.758,97.4878,262.63,-0.00038823,-7.417e-05,0.0,0 STARLINK-3275,1 50188U 21125AJ  23273.27715013 -.00007417  00000-0 -38823-3 0  9994,2 50188  53.2214 265.7580 0001616  97.4878 262.6300 15.13955099 99285,6902.29,95.115,525.27,523.039,0.0
50188.0,STARLINK-3275,PAYLOAD,2023-09-30 16:09:29,15.13939524,0.0002012,53.2213,263.9647,75.6484,284.4734,-0.00047014,-8.913e-05,0.0,0 STARLINK-3275,1 50188U 21125AJ  23273.67326294 -.00008913  00000-0 -47014-3 0  9991,2 50188  53.2213 263.9647 0002012  75.6484 284.4734 15.13939524 99345,6902.337,95.116,525.591,522.813,0.0
50188.0,STARLINK-3275,PAYLOAD,2023-10-01 04:50:02,15.13902802,0.0001511,53.2206,261.5745,88.3556,271.7611,-0.0004198,-7.983e-05,0.0,0 STARLINK-3275,1 50188U 21125AJ  23274.20142054 -.00007983  00000-0 -41980-3 0  9993,2 50188  53.2206 261.5745 0001511  88.3556 271.7611 15.13902802 99425,6902.449,95.118,525.357,523.271,0.0
50188.0,STARLINK-3275,PAYLOAD,2023-10-01 06:25:07,15.13897318,0.0001785,53.2223,261.2774,94.777,265.3428,-0.00043968,-8.346e-05,0.0,0 STARLINK-3275,1 50188U 21125AJ  23274.26744345 -.00008346  00000-0 -43968-3 0  9992,2 50188  53.2223 261.2774 0001785  94.7770 265.3428 15.13897318102576,6902.465,95.119,525.562,523.098,0.0
50188.0,STARLINK-3275,PAYLOAD,2023-10-01 15:55:32,15.13868672,0.0001594,53.2198,259.4884,97.0137,263.1039,-0.0004262,-8.093e-05,0.0,0 STARLINK-3275,1 50188U 21125AJ  23274.66357570 -.00008093  00000-0 -42620-3 0  9999,2 50188  53.2198 259.4884 0001594  97.0137 263.1039 15.13868672 99490,6902.552,95.121,525.518,523.317,0.0
